{"type": "FeatureCollection", "features": [ {"type": "Feature", "properties": {"norad_id": 35165, "name": "FENGYUN 1C DEB", "group": "fengyun-1c-debris", "lat": 60.002565307227854, "lon": 52.65365368397924, "alt_km": 760.5656689481366, "timestamp": "2025-12-02T17:49:12.315441+00:00", "meta": {"OBJECT_NAME": "FENGYUN 1C DEB", "OBJECT_ID": "1999-025DMV", "EPOCH": "2025-11-30T05:14:00.190464", "MEAN_MOTION": 14.33570134, "ECCENTRICITY": 0.00218891, "INCLINATION": 98.8778, "RA_OF_ASC_NODE": 65.7738, "ARG_OF_PERICENTER": 100.7376, "MEAN_ANOMALY": 259.6273, "EPHEMERIS_TYPE": 0, "CLASSIFICATION_TYPE": "U", "NORAD_CAT_ID": 35165, "ELEMENT_SET_NO": 999, "REV_AT_EPOCH": 89541, "BSTAR": 0.0024382815, "MEAN_MOTION_DOT": 6.727e-05, "MEAN_MOTION_DDOT": 0}, "tle": {"line1": "1 35165U 99025DMV 25334.21805776  .00006727  00000+0  24383-2 0  9991", "line2": "2 35165  98.8778  65.7738 0021889 100.7376 259.6273 14.33570134895419"}}, "geometry": {"type": "Point", "coordinates": [52.65365368397924, 60.002565307227854]}}, {"type": "Feature", "properties": {"norad_id": 35167, "name": "FENGYUN 1C DEB", "group": "fengyun-1c-debris", "lat": -76.69400977727206, "lon": 9.1504541422645, "alt_km": 680.3406281284097, "timestamp": "2025-12-02T17:49:12.315451+00:00", "meta": {"OBJECT_NAME": "FENGYUN 1C DEB", "OBJECT_ID": "1999-025DMX", "EPOCH": "2025-11-27T17:22:23.212128", "MEAN_MOTION": 14.31084388, "ECCENTRICITY": 0.02289339, "INCLINATION": 98.4496, "RA_OF_ASC_NODE": 325.3238, "ARG_OF_PERICENTER": 248.7447, "MEAN_ANOMALY": 108.915, "EPHEMERIS_TYPE": 0, "CLASSIFICATION_TYPE": "U", "NORAD_CAT_ID": 35167, "ELEMENT_SET_NO": 999, "REV_AT_EPOCH": 69805, "BSTAR": 0.00055665644, "MEAN_MOTION_DOT": 1.904e-05, "MEAN_MOTION_DDOT": 0}, "tle": {"line1": "1 35167U 99025DMX 25331.72387977  .00001904  00000+0  55666-3 0  9995", "line2": "2 35167  98.4496 325.3238 0228933 248.7447 108.9150 14.31084388698055"}}, "geometry": {"type": "Point", "coordinates": [9.1504541422645, -76.69400977727206]}}, {"type": "Feature", "properties": {"norad_id": 35169, "name": "FENGYUN 1C DEB", "group": "fengyun-1c-debris", "lat": 55.796421026684044, "lon": -154.35913890709477, "alt_km": 673.7302419743773, "timestamp": "2025-12-02T17:49:12.315461+00:00", "meta": {"OBJECT_NAME": "FENGYUN 1C DEB", "OBJECT_ID": "1999-025DMZ", "EPOCH": "2025-12-01T21:48:02.674656", "MEAN_MOTION": 14.5857224, "ECCENTRICITY": 0.01524132, "INCLINATION": 99.1297, "RA_OF_ASC_NODE": 218.4106, "ARG_OF_PERICENTER": 140.367, "MEAN_ANOMALY": 220.8786, "EPHEMERIS_TYPE": 0, "CLASSIFICATION_TYPE": "U", "NORAD_CAT_ID": 35169, "ELEMENT_SET_NO": 999, "REV_AT_EPOCH": 65622, "BSTAR": 0.00056882419, "MEAN_MOTION_DOT": 3.046e-05, "MEAN_MOTION_DDOT": 0}, "tle": {"line1": "1 35169U 99025DMZ 25335.90836429  .00003046  00000+0  56882-3 0  9992", "line2": "2 35169  99.1297 218.4106 0152413 140.3670 220.8786 14.58572240656224"}}, "geometry": {"type": "Point", "coordinates": [-154.35913890709477, 55.796421026684044]}}, {"type": "Feature", "properties": {"norad_id": 35171, "name": "FENGYUN 1C DEB", "group": "fengyun-1c-debris", "lat": -69.14320293815514, "lon": -76.2687691490448, "alt_km": 926.5984707561556, "timestamp": "2025-12-02T17:49:12.315471+00:00", "meta": {"OBJECT_NAME": "FENGYUN 1C DEB", "OBJECT_ID": "1999-025DNB", "EPOCH": "2025-11-30T16:24:33.147072", "MEAN_MOTION": 13.94881968, "ECCENTRICITY": 0.0137461, "INCLINATION": 99.0083, "RA_OF_ASC_NODE": 126.3258, "ARG_OF_PERICENTER": 351.9725, "MEAN_ANOMALY": 7.9237, "EPHEMERIS_TYPE": 0, "CLASSIFICATION_TYPE": "U", "NORAD_CAT_ID": 35171, "ELEMENT_SET_NO": 999, "REV_AT_EPOCH": 88390, "BSTAR": 0.0015016572, "MEAN_MOTION_DOT": 2.139e-05, "MEAN_MOTION_DDOT": 0}, "tle": {"line1": "1 35171U 99025DNB 25334.68371698  .00002139  00000+0  15017-2 0  9997", "line2": "2 35171  99.0083 126.3258 0137461 351.9725   7.9237 13.94881968883902"}}, "geometry": {"type": "Point", "coordinates": [-76.2687691490448, -69.14320293815514]}}, {"type": "Feature", "properties": {"norad_id": 35173, "name": "FENGYUN 1C DEB", "group": "fengyun-1c-debris", "lat": 59.57070635908126, "lon": -114.28740083846303, "alt_km": 1277.6967147351897, "timestamp": "2025-12-02T17:49:12.315481+00:00", "meta": {"OBJECT_NAME": "FENGYUN 1C DEB", "OBJECT_ID": "1999-025DND", "EPOCH": "2025-11-30T23:52:38.856288", "MEAN_MOTION": 13.37232995, "ECCENTRICITY": 0.04900671, "INCLINATION": 99.7863, "RA_OF_ASC_NODE": 46.9395, "ARG_OF_PERICENTER": 242.1429, "MEAN_ANOMALY": 112.9236, "EPHEMERIS_TYPE": 0, "CLASSIFICATION_TYPE": "U", "NORAD_CAT_ID": 35173, "ELEMENT_SET_NO": 999, "REV_AT_EPOCH": 65672, "BSTAR": 0.0023582521, "MEAN_MOTION_DOT": 2.416e-05, "MEAN_MOTION_DDOT": 0}, "tle": {"line1": "1 35173U 99025DND 25334.99489417  .00002416  00000+0  23583-2 0  9997", "line2": "2 35173  99.7863  46.9395 0490067 242.1429 112.9236 13.37232995656723"}}, "geometry": {"type": "Point", "coordinates": [-114.28740083846303, 59.57070635908126]}}, {"type": "Feature", "properties": {"norad_id": 35174, "name": "FENGYUN 1C DEB", "group": "fengyun-1c-debris", "lat": -66.1836063636817, "lon": -29.493177534235233, "alt_km": 553.5776356890756, "timestamp": "2025-12-02T17:49:12.315491+00:00", "meta": {"OBJECT_NAME": "FENGYUN 1C DEB", "OBJECT_ID": "1999-025DNE", "EPOCH": "2025-11-20T15:53:09.659040", "MEAN_MOTION": 14.97261972, "ECCENTRICITY": 0.01569814, "INCLINATION": 98.9653, "RA_OF_ASC_NODE": 295.6935, "ARG_OF_PERICENTER": 254.7539, "MEAN_ANOMALY": 103.6277, "EPHEMERIS_TYPE": 0, "CLASSIFICATION_TYPE": "U", "NORAD_CAT_ID": 35174, "ELEMENT_SET_NO": 999, "REV_AT_EPOCH": 89835, "BSTAR": 0.0019136785, "MEAN_MOTION_DOT": 0.00028569, "MEAN_MOTION_DDOT": 0}, "tle": {"line1": "1 35174U 99025DNE 25324.66191735  .00028569  00000+0  19137-2 0  9991", "line2": "2 35174  98.9653 295.6935 0156981 254.7539 103.6277 14.97261972898353"}}, "geometry": {"type": "Point", "coordinates": [-29.493177534235233, -66.1836063636817]}}, {"type": "Feature", "properties": {"norad_id": 35175, "name": "FENGYUN 1C DEB", "group": "fengyun-1c-debris", "lat": -9.87063222628052, "lon": -13.119168198727536, "alt_km": 793.5678149374335, "timestamp": "2025-12-02T17:49:12.315502+00:00", "meta": {"OBJECT_NAME": "FENGYUN 1C DEB", "OBJECT_ID": "1999-025DNF", "EPOCH": "2025-11-30T06:43:52.665888", "MEAN_MOTION": 14.21268551, "ECCENTRICITY": 0.00576825, "INCLINATION": 98.5751, "RA_OF_ASC_NODE": 342.9857, "ARG_OF_PERICENTER": 316.5813, "MEAN_ANOMALY": 43.0829, "EPHEMERIS_TYPE": 0, "CLASSIFICATION_TYPE": "U", "NORAD_CAT_ID": 35175, "ELEMENT_SET_NO": 999, "REV_AT_EPOCH": 61058, "BSTAR": 0.0004121206, "MEAN_MOTION_DOT": 8.7e-06, "MEAN_MOTION_DDOT": 0}, "tle": {"line1": "1 35175U 99025DNF 25334.28047067  .00000870  00000+0  41212-3 0  9994", "line2": "2 35175  98.5751 342.9857 0057682 316.5813  43.0829 14.21268551610582"}}, "geometry": {"type": "Point", "coordinates": [-13.119168198727536, -9.87063222628052]}}, {"type": "Feature", "properties": {"norad_id": 35176, "name": "FENGYUN 1C DEB", "group": "fengyun-1c-debris", "lat": 15.701043906743308, "lon": 146.3125059314177, "alt_km": 828.9227001965037, "timestamp": "2025-12-02T17:49:12.315512+00:00", "meta": {"OBJECT_NAME": "FENGYUN 1C DEB", "OBJECT_ID": "1999-025DNG", "EPOCH": "2025-11-25T05:24:51.496992", "MEAN_MOTION": 14.16959142, "ECCENTRICITY": 0.00546479, "INCLINATION": 98.5542, "RA_OF_ASC_NODE": 316.6575, "ARG_OF_PERICENTER": 106.0852, "MEAN_ANOMALY": 254.6349, "EPHEMERIS_TYPE": 0, "CLASSIFICATION_TYPE": "U", "NORAD_CAT_ID": 35176, "ELEMENT_SET_NO": 999, "REV_AT_EPOCH": 90680, "BSTAR": 0.00041422938, "MEAN_MOTION_DOT": 8.03e-06, "MEAN_MOTION_DDOT": 0}, "tle": {"line1": "1 35176U 99025DNG 25329.22559603  .00000803  00000+0  41423-3 0  9997", "line2": "2 35176  98.5542 316.6575 0054647 106.0852 254.6349 14.16959142906806"}}, "geometry": {"type": "Point", "coordinates": [146.3125059314177, 15.701043906743308]}}, {"type": "Feature", "properties": {"norad_id": 35191, "name": "FENGYUN 1C DEB", "group": "fengyun-1c-debris", "lat": 55.03747951097318, "lon": 152.05217248659136, "alt_km": 946.9346943129112, "timestamp": "2025-12-02T17:49:12.315522+00:00", "meta": {"OBJECT_NAME": "FENGYUN 1C DEB", "OBJECT_ID": "1999-025DNX", "EPOCH": "2025-11-27T16:23:27.883104", "MEAN_MOTION": 13.91192598, "ECCENTRICITY": 0.0101898, "INCLINATION": 99.0147, "RA_OF_ASC_NODE": 314.0176, "ARG_OF_PERICENTER": 250.0824, "MEAN_ANOMALY": 108.9335, "EPHEMERIS_TYPE": 0, "CLASSIFICATION_TYPE": "U", "NORAD_CAT_ID": 35191, "ELEMENT_SET_NO": 999, "REV_AT_EPOCH": 87692, "BSTAR": 0.00023599613, "MEAN_MOTION_DOT": 2.66e-06, "MEAN_MOTION_DDOT": 0}, "tle": {"line1": "1 35191U 99025DNX 25331.68296161  .00000266  00000+0  23600-3 0  9994", "line2": "2 35191  99.0147 314.0176 0101898 250.0824 108.9335 13.91192598876920"}}, "geometry": {"type": "Point", "coordinates": [152.05217248659136, 55.03747951097318]}}, {"type": "Feature", "properties": {"norad_id": 35194, "name": "FENGYUN 1C DEB", "group": "fengyun-1c-debris", "lat": 66.37231726976421, "lon": 38.155751520021575, "alt_km": 621.465523609214, "timestamp": "2025-12-02T17:49:12.315532+00:00", "meta": {"OBJECT_NAME": "FENGYUN 1C DEB", "OBJECT_ID": "1999-025DPA", "EPOCH": "2025-11-11T23:07:58.787040", "MEAN_MOTION": 14.59802941, "ECCENTRICITY": 0.01155656, "INCLINATION": 98.9496, "RA_OF_ASC_NODE": 36.8532, "ARG_OF_PERICENTER": 169.3194, "MEAN_ANOMALY": 191.0499, "EPHEMERIS_TYPE": 0, "CLASSIFICATION_TYPE": "U", "NORAD_CAT_ID": 35194, "ELEMENT_SET_NO": 999, "REV_AT_EPOCH": 64941, "BSTAR": 0.001735525, "MEAN_MOTION_DOT": 9.057e-05, "MEAN_MOTION_DDOT": 0}, "tle": {"line1": "1 35194U 99025DPA 25315.96387485  .00009057  00000+0  17355-2 0  9996", "line2": "2 35194  98.9496  36.8532 0115565 169.3194 191.0499 14.59802941649412"}}, "geometry": {"type": "Point", "coordinates": [38.155751520021575, 66.37231726976421]}}]}